{
"type": "FeatureCollection",
"name": "buffer",
"crs": { "type": "name", "properties": { "name": "urn:ogc:def:crs:EPSG::3414" } },
"features": [
{ "type": "Feature", "properties": { "road_id": "JALAN BAHAR", "road_name": "JALAN BAHAR" }, "geometry": { "type": "MultiPolygon", "coordinates": [ [ [ [ 12603.833089209952959, 37658.440506377490237 ], [ 12583.927089210934355, 37681.442806377621309 ], [ 12583.703775184261758, 37681.758816019799269 ], [ 12583.429036896404796, 37682.031304774907767 ], [ 12575.49153689551531, 37691.622504774772096 ], [ 12574.169750343449778, 37693.583201916000689 ], [ 12572.730540221244155, 37695.459402116684942 ], [ 12565.12364022346992, 37707.696402116533136 ], [ 12564.673423989414005, 37708.609697081003105 ], [ 12564.101603806022467, 37709.452207631300553 ], [ 12551.285803804761599, 37733.016607632140222 ], [ 12551.171385098466999, 37733.287275313392456 ], [ 12551.010449615094331, 37733.533146019712149 ], [ 12527.859449613773904, 37777.851046020492504 ], [ 12525.947956224985319, 37782.208877881232183 ], [ 12496.632656226154722, 37863.698177881982701 ], [ 12496.534150809531639, 37863.975657489827427 ], [ 12344.368150808753853, 38298.39915749544889 ], [ 12343.128301783641291, 38302.868464721934288 ], [ 12338.438168900938763, 38325.505017393312301 ], [ 12324.691014252941386, 38357.390456383509445 ], [ 12322.25391463068263, 38365.823540704790503 ], [ 12318.967917450187088, 38386.771822725204402 ], [ 12314.723620064998613, 38413.829106062985375 ], [ 12314.306315517271287, 38419.87433181788947 ], [ 12314.495915514033186, 38430.552931818201614 ], [ 12314.495928976026335, 38430.553047421235533 ], [ 12314.495919627088369, 38430.553163429336564 ], [ 12315.323219627294748, 38477.130763428584032 ], [ 12316.047057690591828, 38483.617158437584294 ], [ 12324.55095769266336, 38524.618258438153134 ], [ 12324.550987908200113, 38524.618355196864286 ], [ 12324.55099866704586, 38524.618455991090741 ], [ 12327.573498667114109, 38539.1908559912481 ], [ 12328.910990643909827, 38543.932185447571101 ], [ 12332.115557760935189, 38552.838594060769537 ], [ 12338.825224948104733, 38571.487002866844705 ], [ 12341.020673773537055, 38576.376642136208829 ], [ 12403.536535601975629, 38691.174544549823622 ], [ 12431.60135984885892, 38751.756867148498714 ], [ 12451.161125514379819, 38820.359517143959238 ], [ 12459.24686341942288, 38875.153485224516771 ], [ 12459.246875498578447, 38875.153533601791423 ], [ 12459.246877907839007, 38875.153583406041435 ], [ 12461.866071983589791, 38892.902516222326085 ], [ 12462.360692909343925, 38909.258443953382084 ], [ 12467.907892467961574, 39092.695329374306311 ], [ 12468.018877717189753, 39093.554904945725866 ], [ 12468.002804722753353, 39094.421466857776977 ], [ 12471.773896169712316, 39141.679659692337736 ], [ 12472.470187617383999, 39150.406052506252308 ], [ 12472.689530719577306, 39151.626693433012406 ], [ 12472.754228332352795, 39152.865196516351716 ], [ 12476.885028332653746, 39180.129496516645304 ], [ 12476.885039055505331, 39180.129538767861959 ], [ 12476.885041329625892, 39180.129582299152389 ], [ 12480.255941331344729, 39202.377982300313306 ], [ 12480.688768115192943, 39204.701838976310682 ], [ 12491.757168114754677, 39254.68663897679653 ], [ 12492.562518706450646, 39257.686214574256155 ], [ 12537.863218705620966, 39400.736514576470654 ], [ 12537.975325631163287, 39400.998120204116276 ], [ 12538.038744114825022, 39401.275579323802958 ], [ 12541.094435544282533, 39410.408154834236484 ], [ 12551.134127028972216, 39440.415830499812728 ], [ 12551.134136155504166, 39440.415850879777281 ], [ 12551.134141130767603, 39440.415872648642107 ], [ 12570.834686901462192, 39499.298667392788047 ], [ 12579.650714159064592, 39532.609717401843227 ], [ 12579.650719197918079, 39532.609730915595719 ], [ 12579.650721503559907, 39532.609745152716641 ], [ 12585.118621503535906, 39553.269945152773289 ], [ 12587.515737166319013, 39559.698778601486993 ], [ 12591.120996111498243, 39565.536429751591641 ], [ 12595.795850259662984, 39570.558560943172779 ], [ 12601.360647587589483, 39574.57217449098971 ], [ 12607.601536054737153, 39577.423029477249656 ], [ 12614.278681817246252, 39579.001569143620145 ], [ 12621.135485908047485, 39579.247131095966324 ], [ 12627.90844519127495, 39578.150278526183683 ], [ 12634.337278639990473, 39575.753162863402395 ], [ 12640.174929790091483, 39572.147903918223165 ], [ 12645.19706098167444, 39567.473049770058424 ], [ 12649.210674529489552, 39561.908252442131925 ], [ 12652.061529515751317, 39555.667363974986074 ], [ 12653.640069182119987, 39548.990218212478794 ], [ 12653.885631134471623, 39542.133414121672104 ], [ 12652.788778564687163, 39535.360454838446458 ], [ 12647.320882134414205, 39514.700268326341757 ], [ 12638.217585908812907, 39480.303782589893672 ], [ 12637.82464722730947, 39479.24995623210998 ], [ 12637.574058936248548, 39478.15352734328917 ], [ 12617.517265717442569, 39418.205947612499585 ], [ 12607.477473039481993, 39388.197969489941897 ], [ 12607.477332548261984, 39388.197655766620301 ], [ 12607.477255954376233, 39388.197320664447034 ], [ 12604.511401639341784, 39379.333242235617945 ], [ 12559.765565867694022, 39238.035089423385216 ], [ 12549.288904743843887, 39190.722577138927591 ], [ 12546.095165240460119, 39169.643460601939296 ], [ 12542.149902130240662, 39143.603749889894971 ], [ 12541.552112449024207, 39136.111847474843671 ], [ 12541.552093341379077, 39136.11174114109599 ], [ 12541.552095344903137, 39136.111633122796775 ], [ 12537.849772629379004, 39089.715229512090445 ], [ 12532.32870760152764, 38907.142570603085915 ], [ 12532.328706006630455, 38907.142558250685397 ], [ 12532.328706852205869, 38907.14254582447029 ], [ 12531.772506852994411, 38888.750345823595126 ], [ 12531.511867954592162, 38886.731720987329027 ], [ 12531.41352216256746, 38884.698716567712836 ], [ 12528.49692935168423, 38864.934465292062669 ], [ 12520.075436649192852, 38807.865214748686412 ], [ 12519.109045595607313, 38803.378055835659325 ], [ 12498.16824559608358, 38729.93165583483642 ], [ 12496.267452901789511, 38724.816441460694477 ], [ 12466.575052902398966, 38660.720741460303543 ], [ 12465.554926294589677, 38658.693657832409372 ], [ 12403.781601873271939, 38545.259277160439524 ], [ 12397.981875118966855, 38529.139897098699294 ], [ 12397.981833281048239, 38529.13980904238997 ], [ 12397.981809425444226, 38529.13971451602265 ], [ 12395.613209609640762, 38522.556698142732785 ], [ 12393.092221872189839, 38510.402242657270108 ], [ 12385.253973568405854, 38472.610546793672256 ], [ 12384.484882499191372, 38429.310152528087201 ], [ 12384.349273363006432, 38421.672411249383003 ], [ 12388.122280006653455, 38397.619593897623417 ], [ 12388.122281017722344, 38397.619576308883552 ], [ 12388.122285440738779, 38397.619559255355853 ], [ 12390.722707901890317, 38381.041826501430478 ], [ 12404.127985818682646, 38349.949343576263345 ], [ 12406.259998285861002, 38343.193335236108396 ], [ 12411.200964684168866, 38319.346154586855846 ], [ 12562.549980147123279, 37887.255089437705465 ], [ 12591.0081640642602, 37808.148360637642327 ], [ 12612.919433110362661, 37766.203674428834347 ], [ 12625.109868081242894, 37743.789132550082286 ], [ 12630.929609038486888, 37734.427083605864027 ], [ 12637.11097800853895, 37726.957887252094224 ], [ 12656.12102230041819, 37704.990905345170177 ], [ 12697.477392951761431, 37662.303033287993458 ], [ 12734.361879469512132, 37631.688115922712313 ], [ 12769.288403686319725, 37605.43879781018768 ], [ 12807.904366163103987, 37580.241904240225267 ], [ 12807.904398206317637, 37580.24187852335308 ], [ 12807.904434650890835, 37580.241859551868401 ], [ 12864.978126430527482, 37543.001117972104112 ], [ 12946.32453834570515, 37491.499007338403317 ], [ 12948.322392468402541, 37489.940146954497322 ], [ 12950.397796048560849, 37488.48612949532253 ], [ 12958.485237590573888, 37481.544579669483937 ], [ 12976.402671367490257, 37466.165964387277199 ], [ 13017.282231915458397, 37437.461432400574267 ], [ 13139.018811186129824, 37352.071427110371587 ], [ 13152.239194403520742, 37342.798238882372971 ], [ 13152.534302320535062, 37342.544656703808869 ], [ 13152.868894778244794, 37342.346060401730938 ], [ 13221.278650075037149, 37292.064467396303371 ], [ 13412.505001765030102, 37160.23760651662451 ], [ 13416.407996997744704, 37157.113282203441486 ], [ 13467.376796998227292, 37109.960782202921109 ], [ 13469.131037728893716, 37108.218955789212487 ], [ 13482.160237727197455, 37094.334355788567336 ], [ 13484.756626657303059, 37091.224923494650284 ], [ 13509.64412665868258, 37057.64592349427403 ], [ 13509.64419083593566, 37057.645816344505874 ], [ 13509.644274683278127, 37057.64572377334116 ], [ 13526.947274683650903, 37034.299623774226347 ], [ 13529.149304263728482, 37030.941668395535089 ], [ 13540.114387741383325, 37011.924197049993381 ], [ 13546.83547220919354, 37000.267423988116207 ], [ 13547.0454595846968, 36999.803260379485437 ], [ 13547.329824319209365, 36999.380555693911447 ], [ 13553.646822316304679, 36987.650959411621443 ], [ 13569.996518360898335, 36957.292366757115815 ], [ 13570.024848823775756, 36957.224573467086884 ], [ 13570.065605603011136, 36957.163438941293862 ], [ 13671.424745656726373, 36767.057991052657599 ], [ 13735.872119468700475, 36650.886622675825492 ], [ 13736.117721100552444, 36650.318929867302359 ], [ 13736.451211651816266, 36649.797989046644943 ], [ 13755.07254357902093, 36613.253368175232026 ], [ 13761.05190281274372, 36601.659356244941591 ], [ 13763.583961301550517, 36595.282464931660797 ], [ 13764.823297216724313, 36588.534123690929846 ], [ 13764.722283574070389, 36581.673667492097593 ], [ 13763.284802271229637, 36574.964739819501119 ], [ 13760.566094908519517, 36568.665161001197703 ], [ 13756.670639885220226, 36563.017020318322466 ], [ 13751.748137353280981, 36558.237372649811732 ], [ 13745.987756324433576, 36554.509897175099468 ], [ 13739.61086501115642, 36551.977838686289033 ], [ 13732.862523770418193, 36550.738502771120693 ], [ 13726.002067571587759, 36550.839516413769161 ], [ 13719.293139898994923, 36552.276997716609912 ], [ 13712.993561080691507, 36554.99570507932367 ], [ 13707.34542039781627, 36558.891160102619324 ], [ 13702.565772729301898, 36563.813662634558568 ], [ 13698.838297254589634, 36569.574043663407792 ], [ 13692.819697254575658, 36581.244143665135198 ], [ 13692.787958155380693, 36581.324077358156501 ], [ 13692.74158841578901, 36581.396510865204618 ], [ 13674.361344694121726, 36617.467992806363327 ], [ 13610.071680599556203, 36733.355077238113154 ], [ 13609.95545833246797, 36733.623717738257255 ], [ 13609.79309446618754, 36733.867260975908721 ], [ 13508.331203384084802, 36924.16542488662526 ], [ 13492.016181708184376, 36954.45963316164125 ], [ 13492.016179273576199, 36954.459638987529615 ], [ 13492.016175749173271, 36954.459644226510136 ], [ 13485.939919165837637, 36965.742224443078157 ], [ 13479.472427859263917, 36976.959175933785446 ], [ 13479.472414570007459, 36976.959205308834498 ], [ 13479.472395805372798, 36976.959231526860094 ], [ 13469.511836704816233, 36994.234489637427032 ], [ 13453.406399243325723, 37015.964776495042315 ], [ 13429.727045378562252, 37047.913707620697096 ], [ 13418.932506481683959, 37059.416935354871384 ], [ 13370.711243684252622, 37104.027620598775684 ], [ 13181.111998302807478, 37234.732793410476006 ], [ 13180.705975614697309, 37235.075987519041519 ], [ 13180.24880528974245, 37235.347339529114834 ], [ 13111.724451437468815, 37285.713163181193522 ], [ 13098.821405665416023, 37294.763761048983724 ], [ 13098.821392451474821, 37294.763772403537587 ], [ 13098.82137727625377, 37294.763780962042802 ], [ 12977.077677277846306, 37380.158780962818128 ], [ 12977.071059449805034, 37380.164467582930229 ], [ 12977.063461504763836, 37380.168757632702182 ], [ 12934.784861503520005, 37409.855657634099771 ], [ 12932.102320872088967, 37411.940770146080467 ], [ 12912.894220871941798, 37428.427170145223499 ], [ 12912.894167385566107, 37428.427226046413125 ], [ 12912.894104021332168, 37428.427270439082349 ], [ 12906.733913454501817, 37433.714637220553413 ], [ 12827.330661725694881, 37483.986492597243341 ], [ 12827.140647228243324, 37484.134754709615663 ], [ 12826.926865419547539, 37484.246040384627122 ], [ 12769.652199899692278, 37521.617917885174393 ], [ 12730.063233904931622, 37547.449695697636344 ], [ 12728.161407150248124, 37548.782641356359818 ], [ 12691.630507150366611, 37576.237741356613697 ], [ 12690.30462714393434, 37577.28524157476204 ], [ 12651.307927143714551, 37609.653341573954094 ], [ 12648.524026375769608, 37612.231309616239741 ], [ 12605.161226375843398, 37656.990209618452354 ], [ 12604.548057754282127, 37657.761970617102634 ], [ 12603.833089209952959, 37658.440506377490237 ] ] ], [ [ [ 19521.244100933276059, 34203.561023345886497 ], [ 19514.506721642021148, 34202.263416588095424 ], [ 19507.64564868443631, 34202.305140475778899 ], [ 19500.92454924654885, 34203.684591583332804 ], [ 19494.601711410523421, 34206.348758378298953 ], [ 19488.920118288504455, 34210.195258424821077 ], [ 19484.098110317900137, 34215.0762728832633 ], [ 19480.320994560806867, 34220.804227105283644 ], [ 19477.733923457537458, 34227.158999022416538 ], [ 19476.436316699750023, 34233.896378313671448 ], [ 19476.478040587433497, 34240.757451271252648 ], [ 19487.620537039460032, 34347.246313117771933 ], [ 19490.83932368922251, 34379.840714945705258 ], [ 19490.858511064088816, 34379.937046081191511 ], [ 19490.859085283580498, 34380.035267836858111 ], [ 19497.610785284807207, 34444.708167836513894 ], [ 19498.700099166748259, 34450.447386674837617 ], [ 19506.209867127403413, 34477.464371414353081 ], [ 19511.421535100042092, 34496.214256190338347 ], [ 19512.285596704972704, 34498.898648388727452 ], [ 19520.970296706338559, 34522.56494838969229 ], [ 19520.970348171595106, 34522.565054962877184 ], [ 19520.970377857334825, 34522.565169528454135 ], [ 19523.758377855807339, 34530.162469527218491 ], [ 19524.080478142604989, 34530.82945664478757 ], [ 19524.296351884364412, 34531.537989592085069 ], [ 19537.876051883991749, 34564.209689593284565 ], [ 19539.02020199884646, 34566.343987735643168 ], [ 19540.038888434115506, 34568.540936982222775 ], [ 19566.256188434432261, 34613.046736982301809 ], [ 19567.208822511100152, 34614.572811550198821 ], [ 19673.445310106384568, 34775.403792774231988 ], [ 19680.296592063623393, 34785.775949929709896 ], [ 19685.01350340398858, 34793.155771594123507 ], [ 19685.013585526936367, 34793.155875915472279 ], [ 19685.013645720729983, 34793.155994253269455 ], [ 19699.953132441209164, 34816.529109715636878 ], [ 19718.645140221680776, 34857.00979883914988 ], [ 19726.930611154635699, 34890.384988740515837 ], [ 19729.087707484461134, 34908.655395303634577 ], [ 19728.076845718518598, 34952.047474957842496 ], [ 19724.27046044315648, 34980.931348838217673 ], [ 19714.393604789012898, 35026.819434537123016 ], [ 19713.659085341580067, 35036.037087284035806 ], [ 19718.196585340931051, 35121.623087284453504 ], [ 19719.130476647478645, 35128.006732736357662 ], [ 19727.638776646857877, 35163.145732737255457 ], [ 19728.306834848459403, 35165.060237329184019 ], [ 19728.818760356087296, 35167.022267366664892 ], [ 19773.743960357543983, 35288.807967369255493 ], [ 19773.756518495516502, 35288.833860445512983 ], [ 19773.763829407573212, 35288.86169403661188 ], [ 19785.074529407385853, 35319.369494036815013 ], [ 19788.078745426730165, 35325.538022963650292 ], [ 19792.228656572351611, 35331.001931866216182 ], [ 19797.36478408622861, 35335.55124578957475 ], [ 19803.289749468374794, 35339.011137150941067 ], [ 19809.775859621913696, 35341.248644265622715 ], [ 19816.573856971092027, 35342.177780990023166 ], [ 19823.422498290150543, 35341.762841120871599 ], [ 19830.058594133952283, 35340.019770564656937 ], [ 19836.227123060787562, 35337.015554545316263 ], [ 19841.691031963349815, 35332.865643399687542 ], [ 19846.240345886712021, 35327.729515885810542 ], [ 19849.700237248078338, 35321.804550503664359 ], [ 19851.937744362763624, 35315.318440350129094 ], [ 19852.866881087160436, 35308.520443000947125 ], [ 19852.451941218012507, 35301.671801681892248 ], [ 19850.708870661794208, 35295.035705838090507 ], [ 19839.408127169645013, 35264.554761040883022 ], [ 19795.195222047092102, 35144.699989123932028 ], [ 19787.926902940416767, 35114.682069549548032 ], [ 19783.807854994010995, 35036.988882201178058 ], [ 19793.001595279441972, 34994.274565329040342 ], [ 19793.485186718349723, 34991.48274632171524 ], [ 19797.72338671878606, 34959.322146320271713 ], [ 19798.013906587228121, 34955.564438673907716 ], [ 19799.126206587719935, 34907.818038674551644 ], [ 19798.894282328339614, 34902.899126431620971 ], [ 19796.189282329982234, 34879.988026431157778 ], [ 19795.399609603475255, 34875.658936667743546 ], [ 19785.782609600362775, 34836.920136666820326 ], [ 19783.589705613758269, 34830.680390437017195 ], [ 19762.504805613622011, 34785.017490435573563 ], [ 19760.219354348075285, 34780.840505604624923 ], [ 19743.994825374949869, 34755.456916723247559 ], [ 19739.136296665794362, 34747.855528264204622 ], [ 19738.97289556828764, 34747.647958718538575 ], [ 19738.84960287937065, 34747.414326640653599 ], [ 19731.853302878877003, 34736.82262663984875 ], [ 19731.853288330068608, 34736.822608719390701 ], [ 19731.853277556892863, 34736.822588304945384 ], [ 19626.112711176658195, 34576.742380166804651 ], [ 19601.58366504888545, 34535.102515606296947 ], [ 19589.218749975447281, 34505.353493475413416 ], [ 19586.685262860559305, 34498.449741084688867 ], [ 19578.486749984524067, 34476.108328571244783 ], [ 19573.652964968980086, 34458.717943660085439 ], [ 19573.652921585893637, 34458.717831572008436 ], [ 19573.652900902889087, 34458.717713174199162 ], [ 19566.928072450689797, 34434.524610455067887 ], [ 19560.490867336746305, 34372.864180854259757 ], [ 19557.271676380929421, 34340.265684901612985 ], [ 19557.251681917463429, 34340.165301739129063 ], [ 19557.251059482459823, 34340.06294857380999 ], [ 19546.097959479906422, 34233.472748572785349 ], [ 19544.718508372356155, 34226.751649134901527 ], [ 19542.054341577393643, 34220.428811298872461 ], [ 19538.207841530867881, 34214.747218176853494 ], [ 19533.326827072425658, 34209.925210206245538 ], [ 19527.598872850401676, 34206.148094449155906 ], [ 19521.244100933276059, 34203.561023345886497 ] ] ], [ [ [ 24641.144679956989421, 47971.802931285863451 ], [ 24635.991711465656408, 47967.272701850233716 ], [ 24630.053951899571985, 47963.834813785237202 ], [ 24623.559586028924969, 47961.621383201214485 ], [ 24616.758188692045223, 47960.717470994211908 ], [ 24609.911133774323389, 47961.157814003410749 ], [ 24603.281549756367895, 47962.925490093926783 ], [ 24597.124207834080153, 47965.952568464912474 ], [ 24591.675731204457406, 47970.12272019219381 ], [ 24587.145501768831309, 47975.275688683526823 ], [ 24583.707613703834795, 47981.213448249611247 ], [ 24574.672413704942301, 48001.089648249704624 ], [ 24574.672393633962201, 48001.089707139413804 ], [ 24574.672362460027216, 48001.089760982016742 ], [ 24563.006562458824192, 48026.753160982363624 ], [ 24563.002833345904946, 48026.76410259691329 ], [ 24562.997047861430474, 48026.774110263075272 ], [ 24427.855947862059111, 48324.588310268067289 ], [ 24427.855942337777378, 48324.588326511860942 ], [ 24427.85593375065946, 48324.588341365793895 ], [ 24395.002233750725281, 48396.989141365826072 ], [ 24394.564209465817839, 48398.277127686953463 ], [ 24393.97670774134167, 48399.504163041543507 ], [ 24368.261007740773493, 48470.31126304238569 ], [ 24367.983466348203365, 48471.397329534702294 ], [ 24367.564953929108015, 48472.437241552761407 ], [ 24346.042053928955283, 48546.052641553331341 ], [ 24345.843522945328004, 48547.106127375460346 ], [ 24345.504784390162968, 48548.123232640486094 ], [ 24343.16548439233884, 48558.423932642064756 ], [ 24343.165482139298547, 48558.423950552351016 ], [ 24343.165476435431628, 48558.423967678987538 ], [ 24328.227009427748271, 48624.203217328191386 ], [ 24327.382280960184289, 48627.691476341577072 ], [ 24317.510471344503458, 48668.242776905237406 ], [ 24317.510467246163898, 48668.242805857604253 ], [ 24317.510457578282512, 48668.24283345414733 ], [ 24312.736657576780999, 48687.852733453997644 ], [ 24311.77502128118067, 48694.646209636855929 ], [ 24312.157204013477894, 48701.496757014341711 ], [ 24313.868518705599854, 48708.14111289257562 ], [ 24316.843200493643963, 48714.32393840135046 ], [ 24320.966934024720103, 48719.807631023737486 ], [ 24326.081246531841316, 48724.381455527538492 ], [ 24331.989597853498708, 48727.869642402110912 ], [ 24338.464933361847216, 48730.138142582058208 ], [ 24345.258409544705501, 48731.099778877658537 ], [ 24352.10895692219492, 48730.717596145361313 ], [ 24358.75331280042883, 48729.006281453242991 ], [ 24364.93613830920367, 48726.031599665198883 ], [ 24370.419830931587057, 48721.90786613412638 ], [ 24374.993655435388064, 48716.793553627001529 ], [ 24378.481842309960484, 48710.885202305340499 ], [ 24380.750342489911418, 48704.40986679699563 ], [ 24385.524135983268934, 48684.799993531407381 ], [ 24395.400928724549885, 48644.228223344471189 ], [ 24395.403899913198984, 48644.207233644352527 ], [ 24395.410884773304133, 48644.187218470033258 ], [ 24396.319384774615173, 48640.435618470844929 ], [ 24396.354248916242796, 48640.187165736351744 ], [ 24396.43352363602753, 48639.949132569636276 ], [ 24411.427320383736514, 48573.926246891351184 ], [ 24413.529633733327501, 48564.66907630886999 ], [ 24434.438207053950464, 48493.154875693340728 ], [ 24459.307958776193118, 48424.677058750618016 ], [ 24491.600058829291811, 48353.513875379183446 ], [ 24626.736398351717071, 48055.71016616961424 ], [ 24638.397411868914787, 48030.057295876067656 ], [ 24647.432586363942391, 48010.181151980978029 ], [ 24649.646016947965109, 48003.686786110331013 ], [ 24650.549929154974961, 47996.885388773451268 ], [ 24650.109586145772482, 47990.038333855729434 ], [ 24648.341910055260087, 47983.408749837777577 ], [ 24645.314831684267119, 47977.251407915486197 ], [ 24641.144679956989421, 47971.802931285863451 ] ] ] ] } }
]
}
