{
"type": "FeatureCollection",
"name": "sla_major_roads_final",
"crs": { "type": "name", "properties": { "name": "urn:ogc:def:crs:EPSG::3414" } },
"features": [
{ "type": "Feature", "properties": { "road_id": "JALAN BAHAR", "road_name": "JALAN BAHAR" }, "geometry": { "type": "LineString", "coordinates": [ [ 12613.485800034135536, 39523.654999995553226 ], [ 12618.953700034111534, 39544.315199995609873 ] ] } },
{ "type": "Feature", "properties": { "road_id": "JALAN BAHAR", "road_name": "JALAN BAHAR" }, "geometry": { "type": "LineString", "coordinates": [ [ 12610.392900034747072, 37704.346099971298827 ], [ 12630.298900033765676, 37681.343799971167755 ] ] } },
{ "type": "Feature", "properties": { "road_id": "JALAN BAHAR", "road_name": "JALAN BAHAR" }, "geometry": { "type": "LineString", "coordinates": [ [ 12582.032700034822483, 37749.73869997185102 ], [ 12594.848500036083351, 37726.174299971011351 ] ] } },
{ "type": "Feature", "properties": { "road_id": "JALAN BAHAR", "road_name": "JALAN BAHAR" }, "geometry": { "type": "LineString", "coordinates": [ [ 12365.048700033999921, 38540.989199982112041 ], [ 12371.758400033071666, 38559.637699983431958 ], [ 12434.817200035055066, 38675.432599985186243 ], [ 12464.509600034445612, 38739.528299985577178 ], [ 12485.450400033969345, 38812.974699986400083 ], [ 12493.871900034646387, 38870.043999986803101 ] ] } },
{ "type": "Feature", "properties": { "road_id": "JALAN BAHAR", "road_name": "JALAN BAHAR" }, "geometry": { "type": "LineString", "coordinates": [ [ 12358.821600035285883, 38517.510299981324351 ], [ 12361.844100035354131, 38532.08269998148171 ], [ 12365.048700033999921, 38540.989199982112041 ] ] } },
{ "type": "Feature", "properties": { "road_id": "JALAN BAHAR", "road_name": "JALAN BAHAR" }, "geometry": { "type": "LineString", "coordinates": [ [ 12349.490400033007973, 38429.931599981508043 ], [ 12350.317700033214351, 38476.509199980755511 ], [ 12358.821600035285883, 38517.510299981324351 ] ] } },
{ "type": "Feature", "properties": { "road_id": "JALAN BAHAR", "road_name": "JALAN BAHAR" }, "geometry": { "type": "LineString", "coordinates": [ [ 12353.545100035405994, 38392.195699979412893 ], [ 12349.300800036246073, 38419.252999981195899 ], [ 12349.490400033007973, 38429.931599981508043 ] ] } },
{ "type": "Feature", "properties": { "road_id": "JALAN BAHAR", "road_name": "JALAN BAHAR" }, "geometry": { "type": "LineString", "coordinates": [ [ 13640.677500034304103, 36750.333999957991182 ], [ 13705.266300033952575, 36633.907699955947464 ] ] } },
{ "type": "Feature", "properties": { "road_id": "JALAN BAHAR", "road_name": "JALAN BAHAR" }, "geometry": { "type": "LineString", "coordinates": [ [ 12604.382500033741962, 39489.258499996183673 ], [ 12613.485800034135536, 39523.654999995553226 ] ] } },
{ "type": "Feature", "properties": { "road_id": "JALAN BAHAR", "road_name": "JALAN BAHAR" }, "geometry": { "type": "LineString", "coordinates": [ [ 13723.926500033652701, 36597.286799955902097 ], [ 13729.945100033666677, 36585.616699954174692 ] ] } },
{ "type": "Feature", "properties": { "road_id": "JALAN BAHAR", "road_name": "JALAN BAHAR" }, "geometry": { "type": "LineString", "coordinates": [ [ 13200.977200033537883, 37263.548999965074472 ], [ 13132.14050003444936, 37314.144399965771299 ] ] } },
{ "type": "Feature", "properties": { "road_id": "JALAN BAHAR", "road_name": "JALAN BAHAR" }, "geometry": { "type": "LineString", "coordinates": [ [ 12927.602200035204078, 37461.927499967503536 ], [ 12846.053000036195954, 37513.557999968143122 ] ] } },
{ "type": "Feature", "properties": { "road_id": "JALAN BAHAR", "road_name": "JALAN BAHAR" }, "geometry": { "type": "LineString", "coordinates": [ [ 13522.831500034188139, 36971.055299959545664 ], [ 13539.181200034894573, 36940.696699959211401 ] ] } },
{ "type": "Feature", "properties": { "road_id": "JALAN BAHAR", "road_name": "JALAN BAHAR" }, "geometry": { "type": "LineString", "coordinates": [ [ 13481.525300034465545, 37036.805299960484263 ], [ 13498.828300034838321, 37013.45919996136945 ], [ 13509.793400034262959, 36994.441699961025734 ] ] } },
{ "type": "Feature", "properties": { "road_id": "JALAN BAHAR", "road_name": "JALAN BAHAR" }, "geometry": { "type": "LineString", "coordinates": [ [ 12502.891900034517676, 39091.637399989565893 ], [ 12506.663000033138815, 39138.895699991007859 ] ] } },
{ "type": "Feature", "properties": { "road_id": "JALAN BAHAR", "road_name": "JALAN BAHAR" }, "geometry": { "type": "LineString", "coordinates": [ [ 12497.344700034971538, 38908.200499987826333 ], [ 12502.891900034517676, 39091.637399989565893 ] ] } },
{ "type": "Feature", "properties": { "road_id": "JALAN BAHAR", "road_name": "JALAN BAHAR" }, "geometry": { "type": "LineString", "coordinates": [ [ 12507.359300033269392, 39147.62219999008812 ], [ 12511.490100033570343, 39174.886499990381708 ] ] } },
{ "type": "Feature", "properties": { "road_id": "JALAN BAHAR", "road_name": "JALAN BAHAR" }, "geometry": { "type": "LineString", "coordinates": [ [ 12511.490100033570343, 39174.886499990381708 ], [ 12514.86100003528918, 39197.134899991542625 ], [ 12525.929400034850914, 39247.119699992028472 ], [ 12571.230100034021234, 39390.169999994242971 ] ] } },
{ "type": "Feature", "properties": { "road_id": "JALAN BAHAR", "road_name": "JALAN BAHAR" }, "geometry": { "type": "LineString", "coordinates": [ [ 12935.68970003468894, 37454.985899966901343 ], [ 12927.602200035204078, 37461.927499967503536 ] ] } },
{ "type": "Feature", "properties": { "road_id": "JALAN BAHAR", "road_name": "JALAN BAHAR" }, "geometry": { "type": "LineString", "coordinates": [ [ 12496.78850003576008, 38889.80829998695117 ], [ 12497.344700034971538, 38908.200499987826333 ] ] } },
{ "type": "Feature", "properties": { "road_id": "JALAN BAHAR", "road_name": "JALAN BAHAR" }, "geometry": { "type": "LineString", "coordinates": [ [ 12493.871900034646387, 38870.043999986803101 ], [ 12496.78850003576008, 38889.80829998695117 ] ] } },
{ "type": "Feature", "properties": { "road_id": "JALAN BAHAR", "road_name": "JALAN BAHAR" }, "geometry": { "type": "LineString", "coordinates": [ [ 12506.663000033138815, 39138.895699991007859 ], [ 12507.359300033269392, 39147.62219999008812 ] ] } },
{ "type": "Feature", "properties": { "road_id": "JALAN BAHAR", "road_name": "JALAN BAHAR" }, "geometry": { "type": "LineString", "coordinates": [ [ 12571.230100034021234, 39390.169999994242971 ], [ 12574.28590003518002, 39399.302899994007021 ] ] } },
{ "type": "Feature", "properties": { "road_id": "JALAN BAHAR", "road_name": "JALAN BAHAR" }, "geometry": { "type": "LineString", "coordinates": [ [ 12584.325700033274188, 39429.310899995747604 ], [ 12604.382500033741962, 39489.258499996183673 ] ] } },
{ "type": "Feature", "properties": { "road_id": "JALAN BAHAR", "road_name": "JALAN BAHAR" }, "geometry": { "type": "LineString", "coordinates": [ [ 13705.266300033952575, 36633.907699955947464 ], [ 13723.926500033652701, 36597.286799955902097 ] ] } },
{ "type": "Feature", "properties": { "road_id": "JALAN BAHAR", "road_name": "JALAN BAHAR" }, "geometry": { "type": "LineString", "coordinates": [ [ 13539.181200034894573, 36940.696699959211401 ], [ 13640.677500034304103, 36750.333999957991182 ] ] } },
{ "type": "Feature", "properties": { "road_id": "JALAN BAHAR", "road_name": "JALAN BAHAR" }, "geometry": { "type": "LineString", "coordinates": [ [ 12582.032700034822483, 37749.73869997185102 ], [ 12558.881700033502057, 37794.056599972631375 ], [ 12529.56640003467146, 37875.545899973381893 ], [ 12377.400400033893675, 38309.969399979003356 ], [ 12371.987900035608618, 38336.092399979039328 ], [ 12356.831100036015414, 38371.247399980733462 ], [ 12353.545100035405994, 38392.195699979412893 ] ] } },
{ "type": "Feature", "properties": { "road_id": "JALAN BAHAR", "road_name": "JALAN BAHAR" }, "geometry": { "type": "LineString", "coordinates": [ [ 13481.525300034465545, 37036.805299960484263 ], [ 13456.637800033086023, 37070.384299960860517 ], [ 13443.608600034782285, 37084.268899961505667 ], [ 13392.639800034299697, 37131.421399962026044 ], [ 13200.977200033537883, 37263.548999965074472 ] ] } },
{ "type": "Feature", "properties": { "road_id": "JALAN BAHAR", "road_name": "JALAN BAHAR" }, "geometry": { "type": "LineString", "coordinates": [ [ 13132.14050003444936, 37314.144399965771299 ], [ 13118.920100034487405, 37323.417599965585396 ] ] } },
{ "type": "Feature", "properties": { "road_id": "JALAN BAHAR", "road_name": "JALAN BAHAR" }, "geometry": { "type": "LineString", "coordinates": [ [ 13509.793400034262959, 36994.441699961025734 ], [ 13516.514500034194498, 36982.784899960875919 ] ] } },
{ "type": "Feature", "properties": { "road_id": "JALAN BAHAR", "road_name": "JALAN BAHAR" }, "geometry": { "type": "LineString", "coordinates": [ [ 13516.514500034194498, 36982.784899960875919 ], [ 13522.831500034188139, 36971.055299959545664 ] ] } },
{ "type": "Feature", "properties": { "road_id": "JALAN BAHAR", "road_name": "JALAN BAHAR" }, "geometry": { "type": "LineString", "coordinates": [ [ 12997.17640003607994, 37408.812599966360722 ], [ 12954.897800034836109, 37438.499499967758311 ], [ 12935.68970003468894, 37454.985899966901343 ] ] } },
{ "type": "Feature", "properties": { "road_id": "JALAN BAHAR", "road_name": "JALAN BAHAR" }, "geometry": { "type": "LineString", "coordinates": [ [ 12788.77830003424242, 37550.929899968352402 ], [ 12846.053000036195954, 37513.557999968143122 ] ] } },
{ "type": "Feature", "properties": { "road_id": "JALAN BAHAR", "road_name": "JALAN BAHAR" }, "geometry": { "type": "LineString", "coordinates": [ [ 12594.848500036083351, 37726.174299971011351 ], [ 12602.455400033857586, 37713.937299971163156 ] ] } },
{ "type": "Feature", "properties": { "road_id": "JALAN BAHAR", "road_name": "JALAN BAHAR" }, "geometry": { "type": "LineString", "coordinates": [ [ 12602.455400033857586, 37713.937299971163156 ], [ 12610.392900034747072, 37704.346099971298827 ] ] } },
{ "type": "Feature", "properties": { "road_id": "JALAN BAHAR", "road_name": "JALAN BAHAR" }, "geometry": { "type": "LineString", "coordinates": [ [ 12788.77830003424242, 37550.929899968352402 ], [ 12749.189300033793188, 37576.761699969509209 ], [ 12712.658400033911676, 37604.216799969763088 ], [ 12673.661700033691886, 37636.584899968955142 ], [ 12630.298900033765676, 37681.343799971167755 ] ] } },
{ "type": "Feature", "properties": { "road_id": "JALAN BAHAR", "road_name": "JALAN BAHAR" }, "geometry": { "type": "LineString", "coordinates": [ [ 12574.28590003518002, 39399.302899994007021 ], [ 12584.325700033274188, 39429.310899995747604 ] ] } },
{ "type": "Feature", "properties": { "road_id": "JALAN BAHAR", "road_name": "JALAN BAHAR" }, "geometry": { "type": "LineString", "coordinates": [ [ 13118.920100034487405, 37323.417599965585396 ], [ 12997.17640003607994, 37408.812599966360722 ] ] } },
{ "type": "Feature", "properties": { "road_id": "WOODLANDS AVENUE 8", "road_name": "WOODLANDS AVENUE 8" }, "geometry": { "type": "LineString", "coordinates": [ [ 24606.534900034996099, 48015.573500115388015 ], [ 24615.570100033888593, 47995.697300115294638 ] ] } },
{ "type": "Feature", "properties": { "road_id": "WOODLANDS AVENUE 8", "road_name": "WOODLANDS AVENUE 8" }, "geometry": { "type": "LineString", "coordinates": [ [ 24377.296400035942497, 48566.175100123749871 ], [ 24362.302600035516662, 48632.198000124873943 ] ] } },
{ "type": "Feature", "properties": { "road_id": "WOODLANDS AVENUE 8", "road_name": "WOODLANDS AVENUE 8" }, "geometry": { "type": "LineString", "coordinates": [ [ 24426.874300034487533, 48411.451900120759092 ], [ 24401.158600033919356, 48482.259000121601275 ] ] } },
{ "type": "Feature", "properties": { "road_id": "WOODLANDS AVENUE 8", "road_name": "WOODLANDS AVENUE 8" }, "geometry": { "type": "LineString", "coordinates": [ [ 24351.517300034847722, 48676.521400125646323 ], [ 24346.743500033346209, 48696.131300125496637 ] ] } },
{ "type": "Feature", "properties": { "road_id": "WOODLANDS AVENUE 8", "road_name": "WOODLANDS AVENUE 8" }, "geometry": { "type": "LineString", "coordinates": [ [ 24379.635700033766625, 48555.87440012217121 ], [ 24377.296400035942497, 48566.175100123749871 ] ] } },
{ "type": "Feature", "properties": { "road_id": "WOODLANDS AVENUE 8", "road_name": "WOODLANDS AVENUE 8" }, "geometry": { "type": "LineString", "coordinates": [ [ 24361.394100034205621, 48635.949600124062272 ], [ 24351.517300034847722, 48676.521400125646323 ] ] } },
{ "type": "Feature", "properties": { "road_id": "WOODLANDS AVENUE 8", "road_name": "WOODLANDS AVENUE 8" }, "geometry": { "type": "LineString", "coordinates": [ [ 24379.635700033766625, 48555.87440012217121 ], [ 24401.158600033919356, 48482.259000121601275 ] ] } },
{ "type": "Feature", "properties": { "road_id": "WOODLANDS AVENUE 8", "road_name": "WOODLANDS AVENUE 8" }, "geometry": { "type": "LineString", "coordinates": [ [ 24459.728000034421711, 48339.051100120726915 ], [ 24426.874300034487533, 48411.451900120759092 ] ] } },
{ "type": "Feature", "properties": { "road_id": "WOODLANDS AVENUE 8", "road_name": "WOODLANDS AVENUE 8" }, "geometry": { "type": "LineString", "coordinates": [ [ 24594.869100033793075, 48041.236900115734898 ], [ 24606.534900034996099, 48015.573500115388015 ] ] } },
{ "type": "Feature", "properties": { "road_id": "WOODLANDS AVENUE 8", "road_name": "WOODLANDS AVENUE 8" }, "geometry": { "type": "LineString", "coordinates": [ [ 24594.869100033793075, 48041.236900115734898 ], [ 24459.728000034421711, 48339.051100120726915 ] ] } },
{ "type": "Feature", "properties": { "road_id": "WOODLANDS AVENUE 8", "road_name": "WOODLANDS AVENUE 8" }, "geometry": { "type": "LineString", "coordinates": [ [ 24362.302600035516662, 48632.198000124873943 ], [ 24361.394100034205621, 48635.949600124062272 ] ] } },
{ "type": "Feature", "properties": { "road_id": "TOH TUCK AVENUE", "road_name": "TOH TUCK AVENUE" }, "geometry": { "type": "LineString", "coordinates": [ [ 19714.504200035618851, 34774.306399928704195 ], [ 19709.64560003416409, 34766.704899929623934 ] ] } },
{ "type": "Feature", "properties": { "road_id": "TOH TUCK AVENUE", "road_name": "TOH TUCK AVENUE" }, "geometry": { "type": "LineString", "coordinates": [ [ 19709.64560003416409, 34766.704899929623934 ], [ 19702.649300033670443, 34756.113199928819085 ] ] } },
{ "type": "Feature", "properties": { "road_id": "TOH TUCK AVENUE", "road_name": "TOH TUCK AVENUE" }, "geometry": { "type": "LineString", "coordinates": [ [ 19570.195500034005818, 34550.776399926246086 ], [ 19556.615800034378481, 34518.104699925046589 ] ] } },
{ "type": "Feature", "properties": { "road_id": "TOH TUCK AVENUE", "road_name": "TOH TUCK AVENUE" }, "geometry": { "type": "LineString", "coordinates": [ [ 19556.615800034378481, 34518.104699925046589 ], [ 19553.827800035905966, 34510.507399926282233 ] ] } },
{ "type": "Feature", "properties": { "road_id": "TOH TUCK AVENUE", "road_name": "TOH TUCK AVENUE" }, "geometry": { "type": "LineString", "coordinates": [ [ 19522.441100036223361, 34343.70529992304364 ], [ 19511.28800003366996, 34237.115099922018999 ] ] } },
{ "type": "Feature", "properties": { "road_id": "TOH TUCK AVENUE", "road_name": "TOH TUCK AVENUE" }, "geometry": { "type": "LineString", "coordinates": [ [ 19761.655800033320702, 35154.909099934659025 ], [ 19753.147500033941469, 35119.77009993376123 ], [ 19748.610000034590485, 35034.184099933343532 ], [ 19758.785200033864385, 34986.909899932819826 ], [ 19763.023400034300721, 34954.749299931376299 ], [ 19764.135700034792535, 34907.002899932020227 ], [ 19761.430700036435155, 34884.091799931557034 ], [ 19751.813700033322675, 34845.352999930633814 ], [ 19730.728800033186417, 34799.690099929190183 ], [ 19714.504200035618851, 34774.306399928704195 ] ] } },
{ "type": "Feature", "properties": { "road_id": "TOH TUCK AVENUE", "road_name": "TOH TUCK AVENUE" }, "geometry": { "type": "LineString", "coordinates": [ [ 19525.66990003392857, 34376.401099924274604 ], [ 19522.441100036223361, 34343.70529992304364 ] ] } },
{ "type": "Feature", "properties": { "road_id": "TOH TUCK AVENUE", "road_name": "TOH TUCK AVENUE" }, "geometry": { "type": "LineString", "coordinates": [ [ 19806.581000034777389, 35276.694799937249627 ], [ 19817.891700034590031, 35307.20259993745276 ] ] } },
{ "type": "Feature", "properties": { "road_id": "TOH TUCK AVENUE", "road_name": "TOH TUCK AVENUE" }, "geometry": { "type": "LineString", "coordinates": [ [ 19539.931400034482067, 34468.091099925106391 ], [ 19532.421600035155279, 34441.073999923930387 ], [ 19525.66990003392857, 34376.401099924274604 ] ] } },
{ "type": "Feature", "properties": { "road_id": "TOH TUCK AVENUE", "road_name": "TOH TUCK AVENUE" }, "geometry": { "type": "LineString", "coordinates": [ [ 19702.649300033670443, 34756.113199928819085 ], [ 19596.412800034322572, 34595.28219992632512 ], [ 19570.195500034005818, 34550.776399926246086 ] ] } },
{ "type": "Feature", "properties": { "road_id": "TOH TUCK AVENUE", "road_name": "TOH TUCK AVENUE" }, "geometry": { "type": "LineString", "coordinates": [ [ 19806.581000034777389, 35276.694799937249627 ], [ 19761.655800033320702, 35154.909099934659025 ] ] } },
{ "type": "Feature", "properties": { "road_id": "TOH TUCK AVENUE", "road_name": "TOH TUCK AVENUE" }, "geometry": { "type": "LineString", "coordinates": [ [ 19553.827800035905966, 34510.507399926282233 ], [ 19545.143100034540112, 34486.841099925317394 ], [ 19539.931400034482067, 34468.091099925106391 ] ] } }
]
}
